{
  "norad_id": 59210,
  "name": "STARLINK-31520",
  "history": [
    {
      "epoch": "2026-03-28T15:59:49.731648Z",
      "apogee_km": 476.18590448758005,
      "perigee_km": 474.26435881310863,
      "latitude_deg": -2.7754891052049293e-05,
      "longitude_deg": 1.2427487760521871,
      "height_km": 476.10745511818845,
      "semi_major_axis_km": 6853.362131650344,
      "eccentricity": 0.00014019,
      "inclination_deg": 53.1604,
      "raan_deg": 67.2837,
      "arg_perigee_deg": 89.0687,
      "mean_anomaly_deg": 271.0474,
      "mean_motion_rev_day": 15.3019663
    },
    {
      "epoch": "2026-03-29T04:32:15.627264Z",
      "apogee_km": 476.2531482474142,
      "perigee_km": 474.2272899414502,
      "latitude_deg": 3.347150222988848e-05,
      "longitude_deg": 170.1922748320194,
      "height_km": 476.2746189915743,
      "semi_major_axis_km": 6853.377219094432,
      "eccentricity": 0.0001478,
      "inclination_deg": 53.1608,
      "raan_deg": 64.8561,
      "arg_perigee_deg": 97.7457,
      "mean_anomaly_deg": 262.3712,
      "mean_motion_rev_day": 15.30191577
    },
    {
      "epoch": "2026-03-30T02:29:00.193344Z",
      "apogee_km": 476.25410660062244,
      "perigee_km": 474.20632047721756,
      "latitude_deg": 4.2722197122318606e-05,
      "longitude_deg": -164.14118814482794,
      "height_km": 476.2638487098182,
      "semi_major_axis_km": 6853.36721353892,
      "eccentricity": 0.0001494,
      "inclination_deg": 53.1619,
      "raan_deg": 60.6096,
      "arg_perigee_deg": 97.6137,
      "mean_anomaly_deg": 262.5034,
      "mean_motion_rev_day": 15.30194928
    }
  ]
}